{
  "type": "FeatureCollection",
  "crs": { "type": "name", "properties": { "name": "urn:ogc:def:crs:OGC:1.3:CRS84" } },
  "features": [
    {
      "type": "Feature",
      "id": "FLOOD-ZONE-TEL-01",
      "properties": { "zoneId": "FLOOD-TEL-01", "name": "Telangana Musi River Inundation Basin", "riskSeverity": "Critical", "crs": "EPSG:4326" },
      "geometry": {
        "type": "Polygon",
        "coordinates": [
          [
            [78.3500, 17.3500],
            [78.6000, 17.3500],
            [78.6000, 17.4800],
            [78.3500, 17.4800],
            [78.3500, 17.3500]
          ]
        ]
      }
    },
    {
      "type": "Feature",
      "id": "FLOOD-ZONE-AD-01",
      "properties": { "zoneId": "FLOOD-AD-01", "name": "Abu Dhabi Coastal Tidal Surge Risk Zone", "riskSeverity": "High", "crs": "EPSG:4326" },
      "geometry": {
        "type": "Polygon",
        "coordinates": [
          [
            [54.3000, 24.4500],
            [54.5000, 24.4500],
            [54.5000, 24.5500],
            [54.3000, 24.5500],
            [54.3000, 24.4500]
          ]
        ]
      }
    }
  ]
}
