{
  "type": "FeatureCollection",
  "crs": { "type": "name", "properties": { "name": "urn:ogc:def:crs:OGC:1.3:CRS84" } },
  "features": [
    {
      "type": "Feature",
      "id": "WATER-STRESS-TEL-01",
      "properties": { "zoneId": "WATER-TEL-01", "name": "Hyderabad Industrial Aquifer Depletion Zone", "stressLevel": "Extreme", "crs": "EPSG:4326" },
      "geometry": {
        "type": "Polygon",
        "coordinates": [
          [
            [78.4000, 17.3600],
            [78.5800, 17.3600],
            [78.5800, 17.4700],
            [78.4000, 17.4700],
            [78.4000, 17.3600]
          ]
        ]
      }
    },
    {
      "type": "Feature",
      "id": "WATER-STRESS-AD-01",
      "properties": { "zoneId": "WATER-AD-01", "name": "Al Mafraq Groundwater Stress Basin", "stressLevel": "High", "crs": "EPSG:4326" },
      "geometry": {
        "type": "Polygon",
        "coordinates": [
          [
            [54.5500, 24.2000],
            [54.7000, 24.2000],
            [54.7000, 24.3500],
            [54.5500, 24.3500],
            [54.5500, 24.2000]
          ]
        ]
      }
    }
  ]
}
